{
"type": "FeatureCollection",
"name": "01_DJB_Pipeline_Network_2D_EPSG32644",
"crs": { "type": "name", "properties": { "name": "urn:ogc:def:crs:EPSG::32644" } },
"features": [
{ "type": "Feature", "properties": { "pipe_id": "PIPE-001", "net_elem": "PIPE-001", "zone_id": "DMA-01", "zone_name": "Sonia Vihar North", "pipe_type": "Distribution_Main", "diameter": "DN300", "material": "DI_SYN", "sensor_pt": "PT-001", "sensor_ft": "FT-001", "pump_id": "PUMP-001", "valve_id": "VALVE-001", "res_id": "RES-001", "gis_id": "GIS-PIPE-001", "pressure": 32.18, "flow_m3hr": 771.94, "leak_scr": 100.0, "risk": "Critical", "alert_cnt": 0, "flag_id": "RF-007", "len_m": 1545.8 }, "geometry": { "type": "LineString", "coordinates": [ [ 134024.850613748945761, 3184439.657978580798954 ], [ 133991.687235488148872, 3184940.316321889404207 ], [ 133883.450680003443267, 3184610.648661970626563 ], [ 133778.70353312412044, 3184391.897028437815607 ], [ 133694.92417250276776, 3184838.639642421156168 ] ] } },
{ "type": "Feature", "properties": { "pipe_id": "PIPE-011", "net_elem": "PIPE-011", "zone_id": "DMA-01", "zone_name": "Sonia Vihar North", "pipe_type": "Monitoring_Branch", "diameter": "DN150", "material": "HDPE_SYN", "sensor_pt": "PT-001", "sensor_ft": "FT-001", "pump_id": "PUMP-001", "valve_id": "VALVE-001", "res_id": "RES-001", "gis_id": "GIS-WQS-001", "pressure": 32.18, "flow_m3hr": 771.94, "leak_scr": 100.0, "risk": "Warning", "alert_cnt": 0, "flag_id": "RF-007", "len_m": 313.7 }, "geometry": { "type": "LineString", "coordinates": [ [ 133883.450680003443267, 3184610.648661970626563 ], [ 134180.216905804700218, 3184712.330551499500871 ] ] } },
{ "type": "Feature", "properties": { "pipe_id": "PIPE-002", "net_elem": "PIPE-002", "zone_id": "DMA-02", "zone_name": "Sonia Vihar Central", "pipe_type": "Distribution_Main", "diameter": "DN300", "material": "DI_SYN", "sensor_pt": "PT-002", "sensor_ft": "FT-002", "pump_id": "PUMP-002", "valve_id": "VALVE-002", "res_id": "RES-002", "gis_id": "GIS-PIPE-002", "pressure": 28.61, "flow_m3hr": 841.29, "leak_scr": 53.5, "risk": "Critical", "alert_cnt": 7, "flag_id": "RF-004", "len_m": 1545.82 }, "geometry": { "type": "LineString", "coordinates": [ [ 133787.41391372284852, 3183114.829667496494949 ], [ 133754.247265048732515, 3183615.488535441458225 ], [ 133645.997740722028539, 3183285.82163120387122 ], [ 133541.238162338850088, 3183067.070777220185846 ], [ 133457.449578407802619, 3183513.814318537246436 ] ] } },
{ "type": "Feature", "properties": { "pipe_id": "PIPE-012", "net_elem": "PIPE-012", "zone_id": "DMA-02", "zone_name": "Sonia Vihar Central", "pipe_type": "Monitoring_Branch", "diameter": "DN150", "material": "HDPE_SYN", "sensor_pt": "PT-002", "sensor_ft": "FT-002", "pump_id": "PUMP-002", "valve_id": "VALVE-002", "res_id": "RES-002", "gis_id": "GIS-WQS-002", "pressure": 28.61, "flow_m3hr": 841.29, "leak_scr": 53.5, "risk": "Critical", "alert_cnt": 0, "flag_id": "RF-004", "len_m": 313.73 }, "geometry": { "type": "LineString", "coordinates": [ [ 133645.997740722028539, 3183285.82163120387122 ], [ 133942.798588162695523, 3183387.501057240180671 ] ] } },
{ "type": "Feature", "properties": { "pipe_id": "PIPE-003", "net_elem": "PIPE-003", "zone_id": "DMA-03", "zone_name": "Bhagirathi Corridor", "pipe_type": "Distribution_Main", "diameter": "DN300", "material": "DI_SYN", "sensor_pt": "PT-003", "sensor_ft": "FT-003", "pump_id": "PUMP-003", "valve_id": "VALVE-003", "res_id": "RES-003", "gis_id": "GIS-PIPE-003", "pressure": 28.06, "flow_m3hr": 749.29, "leak_scr": 100.0, "risk": "Critical", "alert_cnt": 384, "flag_id": "RF-001,RF-005", "len_m": 1545.8 }, "geometry": { "type": "LineString", "coordinates": [ [ 135320.454556639189832, 3182067.450681287795305 ], [ 135287.212245974689722, 3182568.09733026009053 ], [ 135179.003214176860638, 3182238.420140809845179 ], [ 135074.268142532149795, 3182019.657823312096298 ], [ 134990.408156080520712, 3182466.382820188533515 ] ] } },
{ "type": "Feature", "properties": { "pipe_id": "PIPE-013", "net_elem": "PIPE-013", "zone_id": "DMA-03", "zone_name": "Bhagirathi Corridor", "pipe_type": "Monitoring_Branch", "diameter": "DN150", "material": "HDPE_SYN", "sensor_pt": "PT-003", "sensor_ft": "FT-003", "pump_id": "PUMP-003", "valve_id": "VALVE-003", "res_id": "RES-003", "gis_id": "GIS-WQS-003", "pressure": 28.06, "flow_m3hr": 749.29, "leak_scr": 100.0, "risk": "Critical", "alert_cnt": 1, "flag_id": "RF-001,RF-005", "len_m": 313.75 }, "geometry": { "type": "LineString", "coordinates": [ [ 135179.003214176860638, 3182238.420140809845179 ], [ 135475.81046582153067, 3182340.139857546892017 ] ] } },
{ "type": "Feature", "properties": { "pipe_id": "PIPE-004", "net_elem": "PIPE-004", "zone_id": "DMA-04", "zone_name": "Yamuna Bank Pocket", "pipe_type": "Distribution_Main", "diameter": "DN300", "material": "DI_SYN", "sensor_pt": "PT-004", "sensor_ft": "FT-004", "pump_id": "PUMP-004", "valve_id": "VALVE-004", "res_id": "RES-004", "gis_id": "GIS-PIPE-004", "pressure": 24.03, "flow_m3hr": 642.48, "leak_scr": 0.0, "risk": "Warning", "alert_cnt": 401, "flag_id": "RF-003", "len_m": 1545.85 }, "geometry": { "type": "LineString", "coordinates": [ [ 132442.810873978072777, 3180825.680360453668982 ], [ 132409.678216229309328, 3181326.347008119802922 ], [ 132301.378764362423681, 3180996.687300217337906 ], [ 132196.579088416299783, 3180777.944337611552328 ], [ 132112.809349617687985, 3181224.699956469703466 ] ] } },
{ "type": "Feature", "properties": { "pipe_id": "PIPE-014", "net_elem": "PIPE-014", "zone_id": "DMA-04", "zone_name": "Yamuna Bank Pocket", "pipe_type": "Monitoring_Branch", "diameter": "DN150", "material": "HDPE_SYN", "sensor_pt": "PT-004", "sensor_ft": "FT-004", "pump_id": "PUMP-004", "valve_id": "VALVE-004", "res_id": "RES-004", "gis_id": "GIS-WQS-004", "pressure": 24.03, "flow_m3hr": 642.48, "leak_scr": 0.0, "risk": "Warning", "alert_cnt": 0, "flag_id": "RF-003", "len_m": 313.79 }, "geometry": { "type": "LineString", "coordinates": [ [ 132301.378764362423681, 3180996.687300217337906 ], [ 132598.250786907330621, 3181098.339560337364674 ] ] } },
{ "type": "Feature", "properties": { "pipe_id": "PIPE-005", "net_elem": "PIPE-005", "zone_id": "DMA-05", "zone_name": "Wazirabad Link", "pipe_type": "Distribution_Main", "diameter": "DN300", "material": "DI_SYN", "sensor_pt": "PT-005", "sensor_ft": "FT-005", "pump_id": "PUMP-005", "valve_id": "VALVE-005", "res_id": "RES-005", "gis_id": "GIS-PIPE-005", "pressure": 29.55, "flow_m3hr": 611.58, "leak_scr": 0.0, "risk": "Critical", "alert_cnt": 0, "flag_id": "RF-002", "len_m": 1545.84 }, "geometry": { "type": "LineString", "coordinates": [ [ 132956.254277678555809, 3181586.662048609461635 ], [ 132923.107508752145804, 3182087.325619644019753 ], [ 132814.826606021553744, 3181757.663103219121695 ], [ 132710.041580098448321, 3181538.917054048739374 ], [ 132626.263109705410898, 3181985.667912232689559 ] ] } },
{ "type": "Feature", "properties": { "pipe_id": "PIPE-015", "net_elem": "PIPE-015", "zone_id": "DMA-05", "zone_name": "Wazirabad Link", "pipe_type": "Monitoring_Branch", "diameter": "DN150", "material": "HDPE_SYN", "sensor_pt": "PT-005", "sensor_ft": "FT-005", "pump_id": "PUMP-005", "valve_id": "VALVE-005", "res_id": "RES-005", "gis_id": "GIS-WQS-005", "pressure": 29.55, "flow_m3hr": 611.58, "leak_scr": 0.0, "risk": "Critical", "alert_cnt": 258, "flag_id": "RF-002", "len_m": 313.77 }, "geometry": { "type": "LineString", "coordinates": [ [ 132814.826606021553744, 3181757.663103219121695 ], [ 133111.674162717012223, 3181859.326019254047424 ] ] } },
{ "type": "Feature", "properties": { "pipe_id": "PIPE-006", "net_elem": "PIPE-006", "zone_id": "DMA-06", "zone_name": "Sangam Extension", "pipe_type": "Distribution_Main", "diameter": "DN300", "material": "DI_SYN", "sensor_pt": "PT-006", "sensor_ft": "FT-006", "pump_id": "PUMP-006", "valve_id": "VALVE-006", "res_id": "RES-006", "gis_id": "GIS-PIPE-006", "pressure": 32.12, "flow_m3hr": 602.36, "leak_scr": 0.0, "risk": "Warning", "alert_cnt": 73, "flag_id": "RF-006", "len_m": 1545.78 }, "geometry": { "type": "LineString", "coordinates": [ [ 136151.258327586168889, 3183595.751714766025543 ], [ 136117.996088571089786, 3184096.393679610919207 ], [ 136009.818464286334347, 3183766.712081069126725 ], [ 135905.108858761959709, 3183547.944942411966622 ], [ 135821.238714198174421, 3183994.662635680288076 ] ] } },
{ "type": "Feature", "properties": { "pipe_id": "PIPE-016", "net_elem": "PIPE-016", "zone_id": "DMA-06", "zone_name": "Sangam Extension", "pipe_type": "Monitoring_Branch", "diameter": "DN150", "material": "HDPE_SYN", "sensor_pt": "PT-006", "sensor_ft": "FT-006", "pump_id": "PUMP-006", "valve_id": "VALVE-006", "res_id": "RES-006", "gis_id": "GIS-WQS-006", "pressure": 32.12, "flow_m3hr": 602.36, "leak_scr": 0.0, "risk": "Warning", "alert_cnt": 0, "flag_id": "RF-006", "len_m": 313.71 }, "geometry": { "type": "LineString", "coordinates": [ [ 136009.818464286334347, 3183766.712081069126725 ], [ 136306.579003558028489, 3183868.448332177009434 ] ] } },
{ "type": "Feature", "properties": { "pipe_id": "TRUNK-001", "net_elem": "TRUNK-001", "zone_id": "MULTI", "zone_name": "Sonia Vihar Trunk Corridor", "pipe_type": "Transmission_Trunk", "diameter": "DN600", "material": "MS_SYN", "sensor_pt": "PT-001..006", "sensor_ft": "FT-001..006", "pump_id": "PUMP-001..006", "valve_id": "VALVE-001..006", "res_id": "RES-001..006", "gis_id": "GIS-TRUNK-001", "pressure": null, "flow_m3hr": null, "leak_scr": 0.0, "risk": "Normal", "alert_cnt": 0, "flag_id": "", "len_m": 8030.66 }, "geometry": { "type": "LineString", "coordinates": [ [ 132409.678216229309328, 3181326.347008119802922 ], [ 132923.107508752145804, 3182087.325619644019753 ], [ 133754.247265048732515, 3183615.488535441458225 ], [ 133991.687235488148872, 3184940.316321889404207 ], [ 136117.996088571089786, 3184096.393679610919207 ], [ 135287.212245974689722, 3182568.09733026009053 ] ] } }
]
}
