{
"type": "FeatureCollection",
"name": "03_DJB_DMA_Zones_EPSG32644",
"crs": { "type": "name", "properties": { "name": "urn:ogc:def:crs:EPSG::32644" } },
"features": [
{ "type": "Feature", "properties": { "zone_id": "DMA-01", "zone_name": "Sonia Vihar North", "risk": "Warning", "flag_id": "RF-007", "asset_cnt": 6, "area_sqm": 779563.97 }, "geometry": { "type": "Polygon", "coordinates": [ [ [ 133826.323927230056142, 3184146.474335792474449 ], [ 133801.941417033289326, 3184142.979369861073792 ], [ 133777.333324022445595, 3184141.900783412158489 ], [ 133752.738532378716627, 3184143.249046872835606 ], [ 133728.395797159726499, 3184147.011071914806962 ], [ 133704.541426573880017, 3184153.150338508654386 ], [ 133681.406988007714972, 3184161.607249445281923 ], [ 133659.21706007499597, 3184172.299708877224475 ], [ 133638.187052509543719, 3184185.123919268138707 ], [ 133618.52111506552319, 3184199.955389013513923 ], [ 133600.41015572444303, 3184216.65014094626531 ], [ 133584.029987447109306, 3184235.04611000418663 ], [ 133569.539621461532079, 3184254.964716480579227 ], [ 133557.079723654023837, 3184276.212599598336965 ], [ 133546.7712490488193, 3184298.583494566380978 ], [ 133538.714267631585244, 3184321.860234905034304 ], [ 133532.986992915655719, 3184345.816860599908978 ], [ 133449.207632294303039, 3184792.559474583249539 ], [ 133445.942917222419055, 3184816.093367362394929 ], [ 133444.927010703308042, 3184839.83089899038896 ], [ 133446.169088444847148, 3184863.557671142276376 ], [ 133449.657931951718638, 3184887.059382671955973 ], [ 133455.36202985123964, 3184910.123765191063285 ], [ 133463.229862505453639, 3184932.54250028450042 ], [ 133473.190367338364013, 3184954.113101048395038 ], [ 133485.153580676094862, 3184974.640740963164717 ], [ 133499.011450302263256, 3184993.940013573504984 ], [ 133514.638811389857437, 3185011.836607083678246 ], [ 133531.89451699500205, 3185028.168878754135221 ], [ 133550.622712901677005, 3185042.789314860478044 ], [ 133570.654245303128846, 3185055.565863044001162 ], [ 133591.80818860582076, 3185066.383125017397106 ], [ 133613.89347955660196, 3185075.143398840911686 ], [ 133910.656542541983072, 3185176.820078309159726 ], [ 133934.873772005346837, 3185183.775210342835635 ], [ 133959.668088145961519, 3185188.257391911000013 ], [ 133984.787640986032784, 3185190.221094944514334 ], [ 134009.977276933583198, 3185189.646372994408011 ], [ 134034.981130522530293, 3185186.53906383831054 ], [ 134059.545223384018755, 3185180.93073018360883 ], [ 134083.420044049096759, 3185172.878339066635817 ], [ 134106.363082378724357, 3185162.463683206122369 ], [ 134128.141292877291562, 3185149.792550187557936 ], [ 134148.533461868239101, 3185134.993647919967771 ], [ 134167.332454487361247, 3185118.217297273688018 ], [ 134184.347318669431843, 3185099.63390518957749 ], [ 134372.876988985983189, 3184871.648134799674153 ], [ 134387.922511397278868, 3184851.464952010195702 ], [ 134400.861970045923954, 3184829.870994011871517 ], [ 134411.564163249131525, 3184807.085216149687767 ], [ 134419.920574430201668, 3184783.33865841338411 ], [ 134425.846472439356148, 3184758.872102772351354 ], [ 134429.281770698638866, 3184733.933631727937609 ], [ 134430.191636459290748, 3184708.776112843304873 ], [ 134428.5668439938745, 3184683.654634749982506 ], [ 134424.423868141951971, 3184658.823920639231801 ], [ 134417.804717260936741, 3184634.535745455417782 ], [ 134408.776507275615586, 3184611.036382982973009 ], [ 134397.43078114578384, 3184588.56410871585831 ], [ 134242.064489090029383, 3184315.891535797156394 ], [ 134229.24526493815938, 3184295.703726940788329 ], [ 134214.555812937236624, 3184276.833111312706023 ], [ 134198.130542779777898, 3184259.452356595546007 ], [ 134180.119747036980698, 3184243.720498123206198 ], [ 134160.68822596949758, 3184229.781483693514019 ], [ 134140.013779591332423, 3184217.762856432702392 ], [ 134118.285580785246566, 3184207.774587767664343 ], [ 134095.70244435526547, 3184199.908071178011596 ], [ 134072.471007854881464, 3184194.235285935457796 ], [ 133826.323927230056142, 3184146.474335792474449 ] ] ] } },
{ "type": "Feature", "properties": { "zone_id": "DMA-02", "zone_name": "Sonia Vihar Central", "risk": "Critical", "flag_id": "RF-004", "asset_cnt": 6, "area_sqm": 779605.94 }, "geometry": { "type": "Polygon", "coordinates": [ [ [ 133588.851232465851353, 3182821.646663586143404 ], [ 133564.46938667842187, 3182818.152497024275362 ], [ 133539.862036844453542, 3182817.074564691632986 ], [ 133515.268044974887744, 3182818.423330009914935 ], [ 133490.926143415679689, 3182822.185700598638505 ], [ 133467.0726174878655, 3182828.325155361089855 ], [ 133443.9390118807205, 3182836.782098991796374 ], [ 133421.749883061769651, 3182847.474440467078239 ], [ 133400.720619521278422, 3182860.298389893956482 ], [ 133381.055351009534206, 3182875.129465995356441 ], [ 133362.944967062096111, 3182891.823704440146685 ], [ 133346.565264047065284, 3182910.219055295921862 ], [ 133332.075238720484776, 3182930.136956038419157 ], [ 133319.615544854954351, 3182951.38406484760344 ], [ 133309.307127922191285, 3182973.754137361887842 ], [ 133301.250051082693972, 3182997.030028682667762 ], [ 133295.522523879102664, 3183020.985801183152944 ], [ 133211.733939948055195, 3183467.729342500213534 ], [ 133208.468670004804153, 3183491.264213197864592 ], [ 133207.452403282484738, 3183515.002775254193693 ], [ 133208.694319549773354, 3183538.730602178256959 ], [ 133212.183200783154462, 3183562.233364447951317 ], [ 133217.887532497494249, 3183585.298765511717647 ], [ 133225.755788411188405, 3183607.71845943108201 ], [ 133235.71689587450237, 3183629.289932831190526 ], [ 133247.680877857055748, 3183649.818334173876792 ], [ 133261.53966569530894, 3183669.118233816232532 ], [ 133277.168075258901808, 3183687.015298968646675 ], [ 133294.424937718198635, 3183703.347868411801755 ], [ 133313.15437469878816, 3183717.968412756919861 ], [ 133333.187206305097789, 3183730.744867053348571 ], [ 133354.342479294136865, 3183741.561823709867895 ], [ 133376.42910159623716, 3183750.321574952919036 ], [ 133673.226788237167057, 3183851.995791857130826 ], [ 133697.442372074554441, 3183858.949423746205866 ], [ 133722.234864130092319, 3183863.430476604029536 ], [ 133747.35247284732759, 3183865.393441036343575 ], [ 133772.540104798041284, 3183864.818381255958229 ], [ 133797.541955400840379, 3183861.711137546226382 ], [ 133822.104106862272602, 3183856.103266950231045 ], [ 133845.977106955746422, 3183848.051722777076066 ], [ 133868.918502448330401, 3183837.638276186771691 ], [ 133890.69530144619057, 3183824.968685726169497 ], [ 133911.08633965079207, 3183810.171623248141259 ], [ 133929.884526494744932, 3183793.397367127239704 ], [ 133946.89894834527513, 3183774.816276036202908 ], [ 134135.450271459238138, 3183546.828797834925354 ], [ 134150.498081039724639, 3183526.644582632463425 ], [ 134163.439521611202508, 3183505.049253683071584 ], [ 134174.143348513549427, 3183482.261818413622677 ], [ 134182.501009679748677, 3183458.513373910449445 ], [ 134188.42774650870706, 3183434.044763261917979 ], [ 134191.863453438214492, 3183409.104133069515228 ], [ 134192.773287501215236, 3183383.944416884798557 ], [ 134191.148021682951367, 3183358.820770104881376 ], [ 134187.004138496296946, 3183333.987982330843806 ], [ 134180.383662825304782, 3183309.697893438395113 ], [ 134171.353735733195208, 3183286.196839564014226 ], [ 134160.005933556269156, 3183263.723154902458191 ], [ 134004.621259116422152, 3182991.051765158772469 ], [ 133991.801336477568839, 3182970.865153050515801 ], [ 133977.111351575236768, 3182951.99575802963227 ], [ 133960.685711830592481, 3182934.616227430291474 ], [ 133942.674705204728525, 3182918.885576928965747 ], [ 133923.24312512454344, 3182904.947735615540296 ], [ 133902.56876268965425, 3182892.930229102727026 ], [ 133880.840779955527978, 3182882.943012714385986 ], [ 133858.257979177404195, 3182875.07746544200927 ], [ 133835.026983849849785, 3182869.405553862452507 ], [ 133588.851232465851353, 3182821.646663586143404 ] ] ] } },
{ "type": "Feature", "properties": { "zone_id": "DMA-03", "zone_name": "Bhagirathi Corridor", "risk": "Critical", "flag_id": "RF-001,RF-005", "asset_cnt": 6, "area_sqm": 779625.68 }, "geometry": { "type": "Polygon", "coordinates": [ [ [ 135121.911858404870145, 3181774.239657036960125 ], [ 135097.531025524018332, 3181770.742499808315188 ], [ 135072.92439188977005, 3181769.661434669978917 ], [ 135048.330801346863154, 3181771.006954960059375 ], [ 135023.988971137470799, 3181774.766000411007553 ], [ 135000.135174796712818, 3181780.902083915658295 ], [ 134977.00094876770163, 3181789.355645690578967 ], [ 134954.810844997380627, 3181800.044631391298026 ], [ 134933.780251327028964, 3181812.865288570988923 ], [ 134914.11330083408393, 3181827.693173752166331 ], [ 134896.000890418130439, 3181844.384360335767269 ], [ 134879.61882786359638, 3181862.77683562040329 ], [ 134865.126125364622567, 3181882.692073377780616 ], [ 134852.663456076174043, 3181903.936766711529344 ], [ 134842.351788672473049, 3181926.304704390466213 ], [ 134834.291213166841771, 3181949.578772430773824 ], [ 134828.559969389811158, 3181973.533061512745917 ], [ 134744.699982938182075, 3182420.258058389183134 ], [ 134741.430831419071183, 3182443.793180872686207 ], [ 134740.410799002274871, 3182467.532365269493312 ], [ 134741.649100078677293, 3182491.26116533158347 ], [ 134745.134548542817356, 3182514.765228617936373 ], [ 134750.835658841824625, 3182537.832232830114663 ], [ 134758.70093039792846, 3182560.253803812433034 ], [ 134768.659312835225137, 3182581.827397884335369 ], [ 134780.62084780834266, 3182602.358131506014615 ], [ 134794.477481634705327, 3182621.660541743040085 ], [ 134810.104041389975464, 3182639.56026163417846 ], [ 134827.35936564867734, 3182655.895595321897417 ], [ 134846.087579656130401, 3182670.51897872146219 ], [ 134866.119503411988262, 3182683.298312530387193 ], [ 134887.274179945816286, 3182694.118155537638813 ], [ 134909.36050997916027, 3182702.880767455324531 ], [ 135206.16459987332928, 3182804.595277526881546 ], [ 135230.377925959532149, 3182811.551350700203329 ], [ 135255.168390574399382, 3182816.035208227578551 ], [ 135280.284252652490977, 3182818.00131764030084 ], [ 135305.470466797298286, 3182817.42971358075738 ], [ 135330.471273204340832, 3182814.326200547628105 ], [ 135355.032794839091366, 3182808.722293952014297 ], [ 135378.905615495750681, 3182800.674900085665286 ], [ 135401.84731255742372, 3182790.265738251619041 ], [ 135423.624918738089036, 3182777.600510926917195 ], [ 135444.017287808033871, 3182762.807830376550555 ], [ 135462.817340279405471, 3182746.037912630476058 ], [ 135479.834166247426765, 3182727.461052074097097 ], [ 135668.432386094267713, 3182499.503579360898584 ], [ 135683.484882787626702, 3182479.320806450676173 ], [ 135696.430989442509599, 3182457.726355739403516 ], [ 135707.13939691419364, 3182434.939254377968609 ], [ 135715.501492484938353, 3182411.190626276191324 ], [ 135721.432461495976895, 3182386.721347871702164 ], [ 135724.87214760153438, 3182361.779604978859425 ], [ 135725.785662919573952, 3182336.618375501595438 ], [ 135724.163741891126847, 3182311.492863542400301 ], [ 135720.02283525839448, 3182286.657910929061472 ], [ 135713.404943209025078, 3182262.365412418730557 ], [ 135704.377189378603362, 3182238.861760791391134 ], [ 135693.031140032340772, 3182216.385347748640925 ], [ 135537.675230849999934, 3181943.696171489544213 ], [ 135524.857756966928719, 3181923.508568979334086 ], [ 135510.170151005411753, 3181904.637926092371345 ], [ 135493.746793263882864, 3181887.256894697900862 ], [ 135475.737944834632799, 3181871.52449786523357 ], [ 135456.308372830360895, 3181857.584674926009029 ], [ 135435.635842891817447, 3181845.56496453890577 ], [ 135413.909492768900236, 3181835.57533780997619 ], [ 135391.328101855673594, 3181827.707192140631378 ], [ 135368.098272511910181, 3181822.032515012659132 ], [ 135121.911858404870145, 3181774.239657036960125 ] ] ] } },
{ "type": "Feature", "properties": { "zone_id": "DMA-04", "zone_name": "Yamuna Bank Pocket", "risk": "Warning", "flag_id": "RF-003", "asset_cnt": 6, "area_sqm": 779685.75 }, "geometry": { "type": "Polygon", "coordinates": [ [ [ 132244.159749460435705, 3180532.513938731048256 ], [ 132219.778786719602067, 3180529.023117145057768 ], [ 132195.172650609980337, 3180527.94829377764836 ], [ 132170.580165209743427, 3180529.299900730140507 ], [ 132146.240022104931995, 3180533.064819474704564 ], [ 132122.38846367894439, 3180539.20650818105787 ], [ 132099.256990173336817, 3180547.665356387384236 ], [ 132077.070112775574671, 3180558.359263570979238 ], [ 132056.043174541526241, 3180571.184436007402837 ], [ 132036.380260302568786, 3180586.016394176986068 ], [ 132018.272215843986487, 3180602.711180950049311 ], [ 132001.894795579457423, 3180621.10675881523639 ], [ 131987.406956700782757, 3180641.024582595564425 ], [ 131974.949316359328805, 3180662.27133238594979 ], [ 131964.642786853393773, 3180684.640789890661836 ], [ 131956.58740206877701, 3180707.915839954745024 ], [ 131950.861346562218387, 3180731.870577854570001 ], [ 131867.091607763606589, 3181178.626196712721139 ], [ 131863.827247197186807, 3181202.163038440048695 ], [ 131862.812246590154245, 3181225.903483721893281 ], [ 131864.055775684915716, 3181249.633056069724262 ], [ 131867.546600161644164, 3181273.137377223465592 ], [ 131873.253183131862897, 3181296.20410389220342 ], [ 131881.123970049608033, 3181318.624846112448722 ], [ 131891.087854466837598, 3181340.197049887850881 ], [ 131903.054820424789796, 3181360.725827108602971 ], [ 131916.916755678510526, 3181380.025716213043779 ], [ 131932.548428406793391, 3181397.922357689123601 ], [ 131949.808618584647775, 3181414.254069278482348 ], [ 131968.541393796447664, 3181428.873306648340076 ], [ 131988.577517964236904, 3181441.647996340878308 ], [ 132009.735980264318641, 3181452.462728954851627 ], [ 132031.825630419480149, 3181461.219801778439432 ], [ 132328.694497031101491, 3181562.866853428538889 ], [ 132352.907757992914412, 3181569.815928254742175 ], [ 132377.697417725954438, 3181574.293027501087636 ], [ 132402.811783186829416, 3181576.252694524358958 ], [ 132427.995864547323436, 3181575.675032537430525 ], [ 132452.993964143533958, 3181572.565906628035009 ], [ 132477.552272611588705, 3181566.956884205807 ], [ 132501.421445851330645, 3181558.904914496932179 ], [ 132524.359136653394671, 3181548.49175032787025 ], [ 132546.132455285987817, 3181535.823118078522384 ], [ 132566.520334058324806, 3181521.027644226327538 ], [ 132585.315771853318438, 3181504.255549382884055 ], [ 132602.327935840148712, 3181485.677123081870377 ], [ 132790.900506518170005, 3181257.669675299432129 ], [ 132805.950703846669057, 3181237.482452730182558 ], [ 132818.893885563680669, 3181215.883692540228367 ], [ 132829.598749325261451, 3181193.092503748368472 ], [ 132837.956699444912374, 3181169.340091987047344 ], [ 132843.882948544604005, 3181144.86741403164342 ], [ 132847.317377681785729, 3181119.922733412589878 ], [ 132848.225146227166988, 3181094.759101898409426 ], [ 132846.597045306145446, 3181069.631792410742491 ], [ 132842.449591218261048, 3181044.795709400903434 ], [ 132835.824857887550024, 3181020.502802967093885 ], [ 132826.790050042560324, 3180996.999512944370508 ], [ 132815.436821456969483, 3180974.52426888840273 ], [ 132659.996908527711639, 3180701.865069004707038 ], [ 132647.174152548337588, 3180681.681574444752187 ], [ 132632.481729173276108, 3180662.815487968735397 ], [ 132616.054055628308561, 3180645.439410578925163 ], [ 132598.041424499388086, 3180629.712311565876007 ], [ 132578.608628744259477, 3180615.778074138332158 ], [ 132557.933454043843085, 3180603.764179071877152 ], [ 132536.205052286357386, 3180593.780538422521204 ], [ 132513.622211065288866, 3180585.918489965610206 ], [ 132490.3915350222087, 3180580.24996157316491 ], [ 132244.159749460435705, 3180532.513938731048256 ] ] ] } },
{ "type": "Feature", "properties": { "zone_id": "DMA-05", "zone_name": "Wazirabad Link", "risk": "Critical", "flag_id": "RF-002", "asset_cnt": 6, "area_sqm": 779658.7 }, "geometry": { "type": "Polygon", "coordinates": [ [ [ 132757.634415372187505, 3181293.489015653263777 ], [ 132733.253177874867106, 3181289.996942911297083 ], [ 132708.646643293526722, 3181288.920945776626468 ], [ 132684.053648288303521, 3181290.271468123421073 ], [ 132659.712898101075552, 3181294.035401472821832 ], [ 132635.860649627720704, 3181300.176212225575 ], [ 132612.728418254642747, 3181308.634296266362071 ], [ 132590.540730717388215, 3181319.327557493932545 ], [ 132569.512945792666869, 3181332.152204666286707 ], [ 132549.84916397681809, 3181346.983758820686489 ], [ 132531.740246439556358, 3181363.67826149566099 ], [ 132515.36196248192573, 3181382.073672024998814 ], [ 132500.873283478955273, 3181401.991440340876579 ], [ 132488.414839867356932, 3181423.238240022212267 ], [ 132478.107556154020131, 3181445.607844766229391 ], [ 132470.051477195316693, 3181468.88313006516546 ], [ 132464.324797138659051, 3181492.83818066958338 ], [ 132380.546326745621627, 3181939.589038853533566 ], [ 132377.281531326065306, 3181963.125205480027944 ], [ 132376.2659758439695, 3181986.865017519332469 ], [ 132377.508834584295982, 3182010.594015196431428 ], [ 132380.998879858874716, 3182034.097836430184543 ], [ 132386.704583434737287, 3182057.164153330028057 ], [ 132394.574401352496352, 3182079.58459031349048 ], [ 132404.537239562283503, 3182101.156606524717063 ], [ 132416.503096170228673, 3182121.685325535945594 ], [ 132430.363874494010815, 3182140.985295817255974 ], [ 132445.994359582575271, 3182158.882166060619056 ], [ 132463.253349377744598, 3182175.214260227046907 ], [ 132481.984930299950065, 3182189.834038089495152 ], [ 132502.019885734218406, 3182202.609428077936172 ], [ 132523.177224692306481, 3182213.425020378548652 ], [ 132545.265816842234926, 3182222.183109521865845 ], [ 132842.110215888969833, 3182323.840816933196038 ], [ 132866.324212072679074, 3182330.791545839514583 ], [ 132891.114790614810772, 3182335.270101305097342 ], [ 132916.230225901002996, 3182337.231007702182978 ], [ 132941.415493694250472, 3182336.654353823047131 ], [ 132966.414860672404757, 3182333.545995059423149 ], [ 132990.974481165845646, 3182327.937493946403265 ], [ 133014.844974727602676, 3182319.885799675714225 ], [ 133037.783958363434067, 3182309.47266982588917 ], [ 133059.558507709007245, 3182296.803840191569179 ], [ 133079.947522163420217, 3182282.007951131090522 ], [ 133098.743969963397831, 3182265.235241343267262 ], [ 133115.75699040107429, 3182246.656022331211716 ], [ 133304.323644365940709, 3182018.656421941239387 ], [ 133319.373159048234811, 3181998.47028583753854 ], [ 133332.315881510294275, 3181976.872741573024541 ], [ 133343.020527405577013, 3181954.082863573450595 ], [ 133351.378514289797749, 3181930.331820686347783 ], [ 133357.305063025589334, 3181905.860531324055046 ], [ 133360.740057738556061, 3181880.917219709604979 ], [ 133361.648655602039071, 3181855.754898018203676 ], [ 133360.021640264691086, 3181830.62879995116964 ], [ 133355.875515336636454, 3181805.793791776057333 ], [ 133349.252336985256989, 3181781.50178709346801 ], [ 133340.219287338783033, 3181757.999191554728895 ], [ 133328.867993025487522, 3181735.52440344914794 ], [ 133173.448107987031108, 3181462.860432804562151 ], [ 133160.626409134216374, 3181442.675827448256314 ], [ 133145.934903912362643, 3181423.808556072413921 ], [ 133129.508005315292394, 3181406.431235872209072 ], [ 133111.496003499487415, 3181390.70285243820399 ], [ 133092.063690775306895, 3181376.767305192071944 ], [ 133071.388853917480446, 3181364.752090846654028 ], [ 133049.660647588927532, 3181354.767136935610324 ], [ 133027.077863759419415, 3181346.903796082828194 ], [ 133003.847112952294992, 3181341.234010213986039 ], [ 132757.634415372187505, 3181293.489015653263777 ] ] ] } },
{ "type": "Feature", "properties": { "zone_id": "DMA-06", "zone_name": "Sangam Extension", "risk": "Warning", "flag_id": "RF-006", "asset_cnt": 6, "area_sqm": 779572.95 }, "geometry": { "type": "Polygon", "coordinates": [ [ [ 135952.772834602510557, 3183302.530710129067302 ], [ 135928.391394052654505, 3183299.03145633591339 ], [ 135903.783945492148632, 3183297.948453227058053 ], [ 135879.189358117408119, 3183299.292213719338179 ], [ 135854.846376278990647, 3183303.049693673383445 ], [ 135830.991301944392035, 3183309.184418515302241 ], [ 135807.855700869986322, 3183317.636837300378829 ], [ 135785.664154747966677, 3183328.324900787789375 ], [ 135764.632081149087753, 3183341.144857906270772 ], [ 135744.963642423070269, 3183355.972262887749821 ], [ 135726.849763855978381, 3183372.663183283060789 ], [ 135710.466280321852537, 3183391.05559714557603 ], [ 135695.972229420091026, 3183410.970965804997832 ], [ 135683.508307667187182, 3183432.215966979973018 ], [ 135673.195504728821106, 3183454.584371392149478 ], [ 135665.13392895006109, 3183477.859044673852623 ], [ 135659.401835584460059, 3183501.814055131748319 ], [ 135575.531691020674771, 3183948.531748400069773 ], [ 135572.262063049623976, 3183972.065574303735048 ], [ 135571.241317392064957, 3183995.803508229088038 ], [ 135572.47867393612978, 3184019.531137220095843 ], [ 135575.962956255243625, 3184043.034141399431974 ], [ 135581.662692559446441, 3184066.10022981511429 ], [ 135589.52639996423386, 3184088.52105795731768 ], [ 135599.483049509988632, 3184110.094109632074833 ], [ 135611.44270773124299, 3184130.624526188243181 ], [ 135625.297348980850074, 3184149.926866579800844 ], [ 135640.921831172163365, 3184167.826782361138612 ], [ 135658.175026125070872, 3184184.162592492997646 ], [ 135676.901094306842424, 3184198.786743722856045 ], [ 135696.930892453063279, 3184211.567143362946808 ], [ 135718.083501354703913, 3184222.388352416921407 ], [ 135740.167860011308221, 3184231.152628283482045 ], [ 136036.925234384223586, 3184332.883672214113176 ], [ 136061.140147221478401, 3184339.842651539947838 ], [ 136085.932524838251993, 3184344.329009648412466 ], [ 136111.050560219649924, 3184346.297180258668959 ], [ 136136.239138765085954, 3184345.727173388935626 ], [ 136161.242429393227212, 3184342.624778388999403 ], [ 136185.806482923595468, 3184337.021505137905478 ], [ 136209.681811344489688, 3184328.974264010321349 ], [ 136232.62592177069746, 3184318.564787860028446 ], [ 136254.405779353837715, 3184305.898801888339221 ], [ 136274.800174131320091, 3184291.104949833359569 ], [ 136293.601967774156947, 3184274.333487381227314 ], [ 136310.620197414391441, 3184255.754756076727062 ], [ 136499.203112401330145, 3184027.809408642817289 ], [ 136514.253905105812009, 3184007.628558025229722 ], [ 136527.198731120297452, 3183986.036323954816908 ], [ 136537.906320983776823, 3183963.251666572876275 ], [ 136546.268092352256645, 3183939.505638015456498 ], [ 136552.199251098849345, 3183915.039039383176714 ], [ 136555.639651184348622, 3183890.099978857208043 ], [ 136556.554404579859693, 3183864.941355704795569 ], [ 136554.934235055203317, 3183839.818295712117106 ], [ 136550.795572246453958, 3183814.985564028844237 ], [ 136544.180385048006428, 3183790.694981676526368 ], [ 136535.155756019172259, 3183767.19287190772593 ], [ 136523.813201120559825, 3183744.717562320176512 ], [ 136368.492525148700224, 3183472.020944909192622 ], [ 136355.676830082462402, 3183451.831334565300494 ], [ 136340.990746909927111, 3183432.958566699177027 ], [ 136324.568650332774268, 3183415.575323333963752 ], [ 136306.560799225582741, 3183399.840657643973827 ], [ 136287.131961797276745, 3183385.898538649547845 ], [ 136266.459907995245885, 3183373.876533929258585 ], [ 136244.733782946306746, 3183363.884642404969782 ], [ 136222.152376316691516, 3183356.014287870377302 ], [ 136198.922303426719736, 3183350.337482483126223 ], [ 135952.772834602510557, 3183302.530710129067302 ] ] ] } }
]
}
