{
"type": "FeatureCollection",
"name": "02_DJB_Assets_Sensors_Valves_Pumps_EPSG32644",
"crs": { "type": "name", "properties": { "name": "urn:ogc:def:crs:EPSG::32644" } },
"features": [
{ "type": "Feature", "properties": { "asset_id": "PIPE-001", "asset_type": "Pipeline", "net_elem": "PIPE-001", "gis_id": "GIS-PIPE-001", "zone_id": "DMA-01", "zone_name": "Sonia Vihar North", "sensor_id": "PT-001", "parameter": "Pressure", "last_val": 32.18, "unit": "mH2O", "quality": "Valid", "alarm": "Normal", "alert_cnt": 0, "flag_id": "RF-007", "risk": "Warning" }, "geometry": { "type": "Point", "coordinates": [ 133883.450680003443267, 3184610.648661970626563 ] } },
{ "type": "Feature", "properties": { "asset_id": "FM-001", "asset_type": "Flowmeter", "net_elem": "PIPE-011", "gis_id": "GIS-FM-001", "zone_id": "DMA-01", "zone_name": "Sonia Vihar North", "sensor_id": "FT-001", "parameter": "Flow", "last_val": 771.94, "unit": "m3/hr", "quality": "Valid", "alarm": "Normal", "alert_cnt": 0, "flag_id": "RF-007", "risk": "Warning" }, "geometry": { "type": "Point", "coordinates": [ 133694.92417250276776, 3184838.639642421156168 ] } },
{ "type": "Feature", "properties": { "asset_id": "RES-001", "asset_type": "Reservoir", "net_elem": "RES-001", "gis_id": "GIS-RES-001", "zone_id": "DMA-01", "zone_name": "Sonia Vihar North", "sensor_id": "LT-001", "parameter": "Reservoir_Level", "last_val": 5.79, "unit": "m", "quality": "Valid", "alarm": "Normal", "alert_cnt": 0, "flag_id": "RF-007", "risk": "Warning" }, "geometry": { "type": "Point", "coordinates": [ 134024.850613748945761, 3184439.657978580798954 ] } },
{ "type": "Feature", "properties": { "asset_id": "PUMP-001", "asset_type": "Pump", "net_elem": "PUMP-001", "gis_id": "GIS-PUMP-001", "zone_id": "DMA-01", "zone_name": "Sonia Vihar North", "sensor_id": "PMP-001", "parameter": "Pump_Status", "last_val": 1.0, "unit": "status", "quality": "Valid", "alarm": "Normal", "alert_cnt": 2, "flag_id": "RF-007", "risk": "Warning" }, "geometry": { "type": "Point", "coordinates": [ 133991.687235488148872, 3184940.316321889404207 ] } },
{ "type": "Feature", "properties": { "asset_id": "VALVE-001", "asset_type": "Valve", "net_elem": "VALVE-001", "gis_id": "GIS-VAL-001", "zone_id": "DMA-01", "zone_name": "Sonia Vihar North", "sensor_id": "VT-001", "parameter": "Valve_Status", "last_val": 1.0, "unit": "status", "quality": "Valid", "alarm": "Normal", "alert_cnt": 0, "flag_id": "RF-007", "risk": "Warning" }, "geometry": { "type": "Point", "coordinates": [ 133778.70353312412044, 3184391.897028437815607 ] } },
{ "type": "Feature", "properties": { "asset_id": "WQS-001", "asset_type": "Water_Quality_Sensor", "net_elem": "WQS-001", "gis_id": "GIS-WQS-001", "zone_id": "DMA-01", "zone_name": "Sonia Vihar North", "sensor_id": "QT-001", "parameter": "Temperature", "last_val": 32.9, "unit": "multi", "quality": "Valid", "alarm": "Normal", "alert_cnt": 0, "flag_id": "RF-007", "risk": "Warning" }, "geometry": { "type": "Point", "coordinates": [ 134180.216905804700218, 3184712.330551499500871 ] } },
{ "type": "Feature", "properties": { "asset_id": "PIPE-002", "asset_type": "Pipeline", "net_elem": "PIPE-002", "gis_id": "GIS-PIPE-002", "zone_id": "DMA-02", "zone_name": "Sonia Vihar Central", "sensor_id": "PT-002", "parameter": "Pressure", "last_val": 28.61, "unit": "mH2O", "quality": "Valid", "alarm": "Normal", "alert_cnt": 7, "flag_id": "RF-004", "risk": "Critical" }, "geometry": { "type": "Point", "coordinates": [ 133645.997740722028539, 3183285.82163120387122 ] } },
{ "type": "Feature", "properties": { "asset_id": "FM-002", "asset_type": "Flowmeter", "net_elem": "PIPE-012", "gis_id": "GIS-FM-002", "zone_id": "DMA-02", "zone_name": "Sonia Vihar Central", "sensor_id": "FT-002", "parameter": "Flow", "last_val": 841.29, "unit": "m3/hr", "quality": "Valid", "alarm": "Normal", "alert_cnt": 0, "flag_id": "RF-004", "risk": "Critical" }, "geometry": { "type": "Point", "coordinates": [ 133457.449578407802619, 3183513.814318537246436 ] } },
{ "type": "Feature", "properties": { "asset_id": "RES-002", "asset_type": "Reservoir", "net_elem": "RES-002", "gis_id": "GIS-RES-002", "zone_id": "DMA-02", "zone_name": "Sonia Vihar Central", "sensor_id": "LT-002", "parameter": "Reservoir_Level", "last_val": 6.02, "unit": "m", "quality": "Valid", "alarm": "Normal", "alert_cnt": 0, "flag_id": "RF-004", "risk": "Critical" }, "geometry": { "type": "Point", "coordinates": [ 133787.41391372284852, 3183114.829667496494949 ] } },
{ "type": "Feature", "properties": { "asset_id": "PUMP-002", "asset_type": "Pump", "net_elem": "PUMP-002", "gis_id": "GIS-PUMP-002", "zone_id": "DMA-02", "zone_name": "Sonia Vihar Central", "sensor_id": "PMP-002", "parameter": "Pump_Status", "last_val": 1.0, "unit": "status", "quality": "Valid", "alarm": "Normal", "alert_cnt": 6, "flag_id": "RF-004", "risk": "Critical" }, "geometry": { "type": "Point", "coordinates": [ 133754.247265048732515, 3183615.488535441458225 ] } },
{ "type": "Feature", "properties": { "asset_id": "VALVE-002", "asset_type": "Valve", "net_elem": "VALVE-002", "gis_id": "GIS-VAL-002", "zone_id": "DMA-02", "zone_name": "Sonia Vihar Central", "sensor_id": "VT-002", "parameter": "Valve_Status", "last_val": 1.0, "unit": "status", "quality": "Valid", "alarm": "Normal", "alert_cnt": 0, "flag_id": "RF-004", "risk": "Critical" }, "geometry": { "type": "Point", "coordinates": [ 133541.238162338850088, 3183067.070777220185846 ] } },
{ "type": "Feature", "properties": { "asset_id": "WQS-002", "asset_type": "Water_Quality_Sensor", "net_elem": "WQS-002", "gis_id": "GIS-WQS-002", "zone_id": "DMA-02", "zone_name": "Sonia Vihar Central", "sensor_id": "QT-002", "parameter": "Temperature", "last_val": 32.3, "unit": "multi", "quality": "Valid", "alarm": "Normal", "alert_cnt": 0, "flag_id": "RF-004", "risk": "Critical" }, "geometry": { "type": "Point", "coordinates": [ 133942.798588162695523, 3183387.501057240180671 ] } },
{ "type": "Feature", "properties": { "asset_id": "PIPE-003", "asset_type": "Pipeline", "net_elem": "PIPE-003", "gis_id": "GIS-PIPE-003", "zone_id": "DMA-03", "zone_name": "Bhagirathi Corridor", "sensor_id": "PT-003", "parameter": "Pressure", "last_val": 28.06, "unit": "mH2O", "quality": "Valid", "alarm": "Normal", "alert_cnt": 342, "flag_id": "RF-001,RF-005", "risk": "Critical" }, "geometry": { "type": "Point", "coordinates": [ 135179.003214176860638, 3182238.420140809845179 ] } },
{ "type": "Feature", "properties": { "asset_id": "FM-003", "asset_type": "Flowmeter", "net_elem": "PIPE-013", "gis_id": "GIS-FM-003", "zone_id": "DMA-03", "zone_name": "Bhagirathi Corridor", "sensor_id": "FT-003", "parameter": "Flow", "last_val": 749.29, "unit": "m3/hr", "quality": "Valid", "alarm": "Normal", "alert_cnt": 42, "flag_id": "RF-001,RF-005", "risk": "Critical" }, "geometry": { "type": "Point", "coordinates": [ 134990.408156080520712, 3182466.382820188533515 ] } },
{ "type": "Feature", "properties": { "asset_id": "RES-003", "asset_type": "Reservoir", "net_elem": "RES-003", "gis_id": "GIS-RES-003", "zone_id": "DMA-03", "zone_name": "Bhagirathi Corridor", "sensor_id": "LT-003", "parameter": "Reservoir_Level", "last_val": 6.12, "unit": "m", "quality": "Valid", "alarm": "Normal", "alert_cnt": 0, "flag_id": "RF-001,RF-005", "risk": "Critical" }, "geometry": { "type": "Point", "coordinates": [ 135320.454556639189832, 3182067.450681287795305 ] } },
{ "type": "Feature", "properties": { "asset_id": "PUMP-003", "asset_type": "Pump", "net_elem": "PUMP-003", "gis_id": "GIS-PUMP-003", "zone_id": "DMA-03", "zone_name": "Bhagirathi Corridor", "sensor_id": "PMP-003", "parameter": "Pump_Status", "last_val": 1.0, "unit": "status", "quality": "Valid", "alarm": "Normal", "alert_cnt": 7, "flag_id": "RF-001,RF-005", "risk": "Critical" }, "geometry": { "type": "Point", "coordinates": [ 135287.212245974689722, 3182568.09733026009053 ] } },
{ "type": "Feature", "properties": { "asset_id": "VALVE-003", "asset_type": "Valve", "net_elem": "VALVE-003", "gis_id": "GIS-VAL-003", "zone_id": "DMA-03", "zone_name": "Bhagirathi Corridor", "sensor_id": "VT-003", "parameter": "Valve_Status", "last_val": 1.0, "unit": "status", "quality": "Valid", "alarm": "Normal", "alert_cnt": 0, "flag_id": "RF-001,RF-005", "risk": "Critical" }, "geometry": { "type": "Point", "coordinates": [ 135074.268142532149795, 3182019.657823312096298 ] } },
{ "type": "Feature", "properties": { "asset_id": "WQS-003", "asset_type": "Water_Quality_Sensor", "net_elem": "WQS-003", "gis_id": "GIS-WQS-003", "zone_id": "DMA-03", "zone_name": "Bhagirathi Corridor", "sensor_id": "QT-003", "parameter": "Conductivity", "last_val": 715.1, "unit": "multi", "quality": "Valid", "alarm": "Normal", "alert_cnt": 1, "flag_id": "RF-001,RF-005", "risk": "Critical" }, "geometry": { "type": "Point", "coordinates": [ 135475.81046582153067, 3182340.139857546892017 ] } },
{ "type": "Feature", "properties": { "asset_id": "PIPE-004", "asset_type": "Pipeline", "net_elem": "PIPE-004", "gis_id": "GIS-PIPE-004", "zone_id": "DMA-04", "zone_name": "Yamuna Bank Pocket", "sensor_id": "PT-004", "parameter": "Pressure", "last_val": 24.03, "unit": "mH2O", "quality": "Valid", "alarm": "Normal", "alert_cnt": 400, "flag_id": "RF-003", "risk": "Warning" }, "geometry": { "type": "Point", "coordinates": [ 132301.378764362423681, 3180996.687300217337906 ] } },
{ "type": "Feature", "properties": { "asset_id": "FM-004", "asset_type": "Flowmeter", "net_elem": "PIPE-014", "gis_id": "GIS-FM-004", "zone_id": "DMA-04", "zone_name": "Yamuna Bank Pocket", "sensor_id": "FT-004", "parameter": "Flow", "last_val": 642.48, "unit": "m3/hr", "quality": "Valid", "alarm": "Normal", "alert_cnt": 1, "flag_id": "RF-003", "risk": "Warning" }, "geometry": { "type": "Point", "coordinates": [ 132112.809349617687985, 3181224.699956469703466 ] } },
{ "type": "Feature", "properties": { "asset_id": "RES-004", "asset_type": "Reservoir", "net_elem": "RES-004", "gis_id": "GIS-RES-004", "zone_id": "DMA-04", "zone_name": "Yamuna Bank Pocket", "sensor_id": "LT-004", "parameter": "Reservoir_Level", "last_val": 6.34, "unit": "m", "quality": "Valid", "alarm": "Normal", "alert_cnt": 59, "flag_id": "RF-003", "risk": "Warning" }, "geometry": { "type": "Point", "coordinates": [ 132442.810873978072777, 3180825.680360453668982 ] } },
{ "type": "Feature", "properties": { "asset_id": "PUMP-004", "asset_type": "Pump", "net_elem": "PUMP-004", "gis_id": "GIS-PUMP-004", "zone_id": "DMA-04", "zone_name": "Yamuna Bank Pocket", "sensor_id": "PMP-004", "parameter": "Pump_Status", "last_val": 1.0, "unit": "status", "quality": "Valid", "alarm": "Normal", "alert_cnt": 6, "flag_id": "RF-003", "risk": "Warning" }, "geometry": { "type": "Point", "coordinates": [ 132409.678216229309328, 3181326.347008119802922 ] } },
{ "type": "Feature", "properties": { "asset_id": "VALVE-004", "asset_type": "Valve", "net_elem": "VALVE-004", "gis_id": "GIS-VAL-004", "zone_id": "DMA-04", "zone_name": "Yamuna Bank Pocket", "sensor_id": "VT-004", "parameter": "Valve_Status", "last_val": 1.0, "unit": "status", "quality": "Valid", "alarm": "Normal", "alert_cnt": 0, "flag_id": "RF-003", "risk": "Warning" }, "geometry": { "type": "Point", "coordinates": [ 132196.579088416299783, 3180777.944337611552328 ] } },
{ "type": "Feature", "properties": { "asset_id": "WQS-004", "asset_type": "Water_Quality_Sensor", "net_elem": "WQS-004", "gis_id": "GIS-WQS-004", "zone_id": "DMA-04", "zone_name": "Yamuna Bank Pocket", "sensor_id": "QT-004", "parameter": "pH", "last_val": 7.21, "unit": "multi", "quality": "Valid", "alarm": "Normal", "alert_cnt": 0, "flag_id": "RF-003", "risk": "Warning" }, "geometry": { "type": "Point", "coordinates": [ 132598.250786907330621, 3181098.339560337364674 ] } },
{ "type": "Feature", "properties": { "asset_id": "PIPE-005", "asset_type": "Pipeline", "net_elem": "PIPE-005", "gis_id": "GIS-PIPE-005", "zone_id": "DMA-05", "zone_name": "Wazirabad Link", "sensor_id": "PT-005", "parameter": "Pressure", "last_val": 29.55, "unit": "mH2O", "quality": "Valid", "alarm": "Normal", "alert_cnt": 0, "flag_id": "RF-002", "risk": "Critical" }, "geometry": { "type": "Point", "coordinates": [ 132814.826606021553744, 3181757.663103219121695 ] } },
{ "type": "Feature", "properties": { "asset_id": "FM-005", "asset_type": "Flowmeter", "net_elem": "PIPE-015", "gis_id": "GIS-FM-005", "zone_id": "DMA-05", "zone_name": "Wazirabad Link", "sensor_id": "FT-005", "parameter": "Flow", "last_val": 611.58, "unit": "m3/hr", "quality": "Valid", "alarm": "Normal", "alert_cnt": 0, "flag_id": "RF-002", "risk": "Critical" }, "geometry": { "type": "Point", "coordinates": [ 132626.263109705410898, 3181985.667912232689559 ] } },
{ "type": "Feature", "properties": { "asset_id": "RES-005", "asset_type": "Reservoir", "net_elem": "RES-005", "gis_id": "GIS-RES-005", "zone_id": "DMA-05", "zone_name": "Wazirabad Link", "sensor_id": "LT-005", "parameter": "Reservoir_Level", "last_val": 6.49, "unit": "m", "quality": "Valid", "alarm": "Normal", "alert_cnt": 0, "flag_id": "RF-002", "risk": "Critical" }, "geometry": { "type": "Point", "coordinates": [ 132956.254277678555809, 3181586.662048609461635 ] } },
{ "type": "Feature", "properties": { "asset_id": "PUMP-005", "asset_type": "Pump", "net_elem": "PUMP-005", "gis_id": "GIS-PUMP-005", "zone_id": "DMA-05", "zone_name": "Wazirabad Link", "sensor_id": "PMP-005", "parameter": "Pump_Status", "last_val": 1.0, "unit": "status", "quality": "Valid", "alarm": "Normal", "alert_cnt": 6, "flag_id": "RF-002", "risk": "Critical" }, "geometry": { "type": "Point", "coordinates": [ 132923.107508752145804, 3182087.325619644019753 ] } },
{ "type": "Feature", "properties": { "asset_id": "VALVE-005", "asset_type": "Valve", "net_elem": "VALVE-005", "gis_id": "GIS-VAL-005", "zone_id": "DMA-05", "zone_name": "Wazirabad Link", "sensor_id": "VT-005", "parameter": "Valve_Status", "last_val": 1.0, "unit": "status", "quality": "Valid", "alarm": "Normal", "alert_cnt": 0, "flag_id": "RF-002", "risk": "Critical" }, "geometry": { "type": "Point", "coordinates": [ 132710.041580098448321, 3181538.917054048739374 ] } },
{ "type": "Feature", "properties": { "asset_id": "WQS-005", "asset_type": "Water_Quality_Sensor", "net_elem": "WQS-005", "gis_id": "GIS-WQS-005", "zone_id": "DMA-05", "zone_name": "Wazirabad Link", "sensor_id": "QT-005", "parameter": "Temperature", "last_val": 32.6, "unit": "multi", "quality": "Valid", "alarm": "Normal", "alert_cnt": 258, "flag_id": "RF-002", "risk": "Critical" }, "geometry": { "type": "Point", "coordinates": [ 133111.674162717012223, 3181859.326019254047424 ] } },
{ "type": "Feature", "properties": { "asset_id": "PIPE-006", "asset_type": "Pipeline", "net_elem": "PIPE-006", "gis_id": "GIS-PIPE-006", "zone_id": "DMA-06", "zone_name": "Sangam Extension", "sensor_id": "PT-006", "parameter": "Pressure", "last_val": 32.12, "unit": "mH2O", "quality": "Valid", "alarm": "Normal", "alert_cnt": 72, "flag_id": "RF-006", "risk": "Warning" }, "geometry": { "type": "Point", "coordinates": [ 136009.818464286334347, 3183766.712081069126725 ] } },
{ "type": "Feature", "properties": { "asset_id": "FM-006", "asset_type": "Flowmeter", "net_elem": "PIPE-016", "gis_id": "GIS-FM-006", "zone_id": "DMA-06", "zone_name": "Sangam Extension", "sensor_id": "FT-006", "parameter": "Flow", "last_val": 602.36, "unit": "m3/hr", "quality": "Valid", "alarm": "Normal", "alert_cnt": 1, "flag_id": "RF-006", "risk": "Warning" }, "geometry": { "type": "Point", "coordinates": [ 135821.238714198174421, 3183994.662635680288076 ] } },
{ "type": "Feature", "properties": { "asset_id": "RES-006", "asset_type": "Reservoir", "net_elem": "RES-006", "gis_id": "GIS-RES-006", "zone_id": "DMA-06", "zone_name": "Sangam Extension", "sensor_id": "LT-006", "parameter": "Reservoir_Level", "last_val": 6.7, "unit": "m", "quality": "Valid", "alarm": "Normal", "alert_cnt": 0, "flag_id": "RF-006", "risk": "Warning" }, "geometry": { "type": "Point", "coordinates": [ 136151.258327586168889, 3183595.751714766025543 ] } },
{ "type": "Feature", "properties": { "asset_id": "PUMP-006", "asset_type": "Pump", "net_elem": "PUMP-006", "gis_id": "GIS-PUMP-006", "zone_id": "DMA-06", "zone_name": "Sangam Extension", "sensor_id": "PMP-006", "parameter": "Pump_Status", "last_val": 1.0, "unit": "status", "quality": "Valid", "alarm": "Normal", "alert_cnt": 4, "flag_id": "RF-006", "risk": "Warning" }, "geometry": { "type": "Point", "coordinates": [ 136117.996088571089786, 3184096.393679610919207 ] } },
{ "type": "Feature", "properties": { "asset_id": "VALVE-006", "asset_type": "Valve", "net_elem": "VALVE-006", "gis_id": "GIS-VAL-006", "zone_id": "DMA-06", "zone_name": "Sangam Extension", "sensor_id": "VT-006", "parameter": "Valve_Status", "last_val": 1.0, "unit": "status", "quality": "Valid", "alarm": "Normal", "alert_cnt": 0, "flag_id": "RF-006", "risk": "Warning" }, "geometry": { "type": "Point", "coordinates": [ 135905.108858761959709, 3183547.944942411966622 ] } },
{ "type": "Feature", "properties": { "asset_id": "WQS-006", "asset_type": "Water_Quality_Sensor", "net_elem": "WQS-006", "gis_id": "GIS-WQS-006", "zone_id": "DMA-06", "zone_name": "Sangam Extension", "sensor_id": "QT-006", "parameter": "Temperature", "last_val": 32.2, "unit": "multi", "quality": "Valid", "alarm": "Normal", "alert_cnt": 0, "flag_id": "RF-006", "risk": "Warning" }, "geometry": { "type": "Point", "coordinates": [ 136306.579003558028489, 3183868.448332177009434 ] } }
]
}
